[{"OBJECT_NAME":"OBJECT C","OBJECT_ID":"2023-104C","EPOCH":"2026-03-09T22:39:44.230752","MEAN_MOTION":15.26846312,"ECCENTRICITY":0.00113074,"INCLINATION":97.273,"RA_OF_ASC_NODE":135.3333,"ARG_OF_PERICENTER":3.876,"MEAN_ANOMALY":356.2565,"EPHEMERIS_TYPE":0,"CLASSIFICATION_TYPE":"U","NORAD_CAT_ID":57426,"ELEMENT_SET_NO":999,"REV_AT_EPOCH":14663,"BSTAR":0.00062618506,"MEAN_MOTION_DOT":0.00016495,"MEAN_MOTION_DDOT":0},{"OBJECT_NAME":"STARLINK-33999","OBJECT_ID":"2025-093X","EPOCH":"2026-03-09T08:42:12.212640","MEAN_MOTION":15.27611111,"ECCENTRICITY":0.00033444,"INCLINATION":43.0059,"RA_OF_ASC_NODE":79.5866,"ARG_OF_PERICENTER":295.8135,"MEAN_ANOMALY":64.2372,"EPHEMERIS_TYPE":0,"CLASSIFICATION_TYPE":"U","NORAD_CAT_ID":63857,"ELEMENT_SET_NO":999,"REV_AT_EPOCH":4792,"BSTAR":0.00096055704,"MEAN_MOTION_DOT":0.00026292,"MEAN_MOTION_DDOT":0}]
